{"type": "FeatureCollection", "features": [ {"type": "Feature", "properties": {"norad_id": 17070, "name": "POLAR BEAR", "group": "nnss", "lat": 63.501532564697186, "lon": -175.0853663267224, "alt_km": 970.943696410879, "timestamp": "2025-12-03T08:58:46.269849+00:00", "meta": {"OBJECT_NAME": "POLAR BEAR", "OBJECT_ID": "1986-088A", "EPOCH": "2025-12-03T02:17:48.033312", "MEAN_MOTION": 13.75247704, "ECCENTRICITY": 0.0040265, "INCLINATION": 89.6181, "RA_OF_ASC_NODE": 184.1593, "ARG_OF_PERICENTER": 147.3527, "MEAN_ANOMALY": 338.9119, "EPHEMERIS_TYPE": 0, "CLASSIFICATION_TYPE": "U", "NORAD_CAT_ID": 17070, "ELEMENT_SET_NO": 999, "REV_AT_EPOCH": 95846, "BSTAR": 0.00013942, "MEAN_MOTION_DOT": 1.46e-06, "MEAN_MOTION_DDOT": 0}, "tle": {"line1": "1 17070U 86088A   25337.09569483  .00000146  00000+0  13942-3 0  9991", "line2": "2 17070  89.6181 184.1593 0040265 147.3527 338.9119 13.75247704958463"}}, "geometry": {"type": "Point", "coordinates": [-175.0853663267224, 63.501532564697186]}}, {"type": "Feature", "properties": {"norad_id": 18361, "name": "OSCAR 27", "group": "nnss", "lat": -83.36614253610007, "lon": -104.29924210056274, "alt_km": 1023.8264558582896, "timestamp": "2025-12-03T08:58:46.269865+00:00", "meta": {"OBJECT_NAME": "OSCAR 27", "OBJECT_ID": "1987-080A", "EPOCH": "2025-12-03T00:31:38.067168", "MEAN_MOTION": 13.44903447, "ECCENTRICITY": 0.0102339, "INCLINATION": 90.3742, "RA_OF_ASC_NODE": 78.9087, "ARG_OF_PERICENTER": 252.0158, "MEAN_ANOMALY": 106.9814, "EPHEMERIS_TYPE": 0, "CLASSIFICATION_TYPE": "U", "NORAD_CAT_ID": 18361, "ELEMENT_SET_NO": 999, "REV_AT_EPOCH": 87426, "BSTAR": 0.00020493, "MEAN_MOTION_DOT": 1.31e-06, "MEAN_MOTION_DDOT": 0}, "tle": {"line1": "1 18361U 87080A   25337.02196837  .00000131  00000+0  20493-3 0  9993", "line2": "2 18361  90.3742  78.9087 0102339 252.0158 106.9814 13.44903447874261"}}, "geometry": {"type": "Point", "coordinates": [-104.29924210056274, -83.36614253610007]}}, {"type": "Feature", "properties": {"norad_id": 18362, "name": "OSCAR 29", "group": "nnss", "lat": -68.97198074881538, "lon": 80.35775111721004, "alt_km": 1025.8327995050286, "timestamp": "2025-12-03T08:58:46.269888+00:00", "meta": {"OBJECT_NAME": "OSCAR 29", "OBJECT_ID": "1987-080B", "EPOCH": "2025-12-03T01:15:25.796160", "MEAN_MOTION": 13.4444552, "ECCENTRICITY": 0.0103681, "INCLINATION": 90.3756, "RA_OF_ASC_NODE": 79.368, "ARG_OF_PERICENTER": 275.3635, "MEAN_ANOMALY": 258.9476, "EPHEMERIS_TYPE": 0, "CLASSIFICATION_TYPE": "U", "NORAD_CAT_ID": 18362, "ELEMENT_SET_NO": 999, "REV_AT_EPOCH": 87379, "BSTAR": 0.00016153, "MEAN_MOTION_DOT": 1.04e-06, "MEAN_MOTION_DDOT": 0}, "tle": {"line1": "1 18362U 87080B   25337.05238190  .00000104  00000+0  16153-3 0  9994", "line2": "2 18362  90.3756  79.3680 0103681 275.3635 258.9476 13.44445520873792"}}, "geometry": {"type": "Point", "coordinates": [80.35775111721004, -68.97198074881538]}}, {"type": "Feature", "properties": {"norad_id": 19070, "name": "OSCAR 23", "group": "nnss", "lat": -88.95085152003335, "lon": 178.19670709647315, "alt_km": 1095.9286594093937, "timestamp": "2025-12-03T08:58:46.269901+00:00", "meta": {"OBJECT_NAME": "OSCAR 23", "OBJECT_ID": "1988-033A", "EPOCH": "2025-12-03T04:21:45.971712", "MEAN_MOTION": 13.27784852, "ECCENTRICITY": 0.0188735, "INCLINATION": 90.3224, "RA_OF_ASC_NODE": 16.096, "ARG_OF_PERICENTER": 206.5416, "MEAN_ANOMALY": 221.5711, "EPHEMERIS_TYPE": 0, "CLASSIFICATION_TYPE": "U", "NORAD_CAT_ID": 19070, "ELEMENT_SET_NO": 999, "REV_AT_EPOCH": 82126, "BSTAR": 0.00021583, "MEAN_MOTION_DOT": 1.15e-06, "MEAN_MOTION_DDOT": 0}, "tle": {"line1": "1 19070U 88033A   25337.18178208  .00000115  00000+0  21583-3 0  9992", "line2": "2 19070  90.3224  16.0960 0188735 206.5416 221.5711 13.27784852821262"}}, "geometry": {"type": "Point", "coordinates": [178.19670709647315, -88.95085152003335]}}, {"type": "Feature", "properties": {"norad_id": 19071, "name": "OSCAR 32", "group": "nnss", "lat": 11.707691300112844, "lon": 16.16643571472157, "alt_km": 1297.066340460451, "timestamp": "2025-12-03T08:58:46.269920+00:00", "meta": {"OBJECT_NAME": "OSCAR 32", "OBJECT_ID": "1988-033B", "EPOCH": "2025-12-03T03:48:32.094720", "MEAN_MOTION": 13.27951982, "ECCENTRICITY": 0.0187558, "INCLINATION": 90.3227, "RA_OF_ASC_NODE": 16.2266, "ARG_OF_PERICENTER": 193.4365, "MEAN_ANOMALY": 228.9932, "EPHEMERIS_TYPE": 0, "CLASSIFICATION_TYPE": "U", "NORAD_CAT_ID": 19071, "ELEMENT_SET_NO": 999, "REV_AT_EPOCH": 82138, "BSTAR": 0.0001708, "MEAN_MOTION_DOT": 9.3e-07, "MEAN_MOTION_DDOT": 0}, "tle": {"line1": "1 19071U 88033B   25337.15870480  .00000093  00000+0  17080-3 0  9993", "line2": "2 19071  90.3227  16.2266 0187558 193.4365 228.9932 13.27951982821385"}}, "geometry": {"type": "Point", "coordinates": [16.16643571472157, 11.707691300112844]}}, {"type": "Feature", "properties": {"norad_id": 19223, "name": "NOVA 2", "group": "nnss", "lat": 17.69794217079149, "lon": 78.28803315736212, "alt_km": 1152.3014729257475, "timestamp": "2025-12-03T08:58:46.269931+00:00", "meta": {"OBJECT_NAME": "NOVA 2", "OBJECT_ID": "1988-052A", "EPOCH": "2025-12-03T00:41:23.597376", "MEAN_MOTION": 13.22934024, "ECCENTRICITY": 0.0031366, "INCLINATION": 89.9873, "RA_OF_ASC_NODE": 78.2844, "ARG_OF_PERICENTER": 43.0655, "MEAN_ANOMALY": 130.8422, "EPHEMERIS_TYPE": 0, "CLASSIFICATION_TYPE": "U", "NORAD_CAT_ID": 19223, "ELEMENT_SET_NO": 999, "REV_AT_EPOCH": 80819, "BSTAR": 0.00014093, "MEAN_MOTION_DOT": 6.8e-07, "MEAN_MOTION_DDOT": 0}, "tle": {"line1": "1 19223U 88052A   25337.02874534  .00000068  00000+0  14093-3 0  9996", "line2": "2 19223  89.9873  78.2844 0031366  43.0655 130.8422 13.22934024808194"}}, "geometry": {"type": "Point", "coordinates": [78.28803315736212, 17.69794217079149]}}, {"type": "Feature", "properties": {"norad_id": 19419, "name": "OSCAR 25", "group": "nnss", "lat": 29.531412031746484, "lon": -159.76675655932237, "alt_km": 1135.6671671733848, "timestamp": "2025-12-03T08:58:46.269941+00:00", "meta": {"OBJECT_NAME": "OSCAR 25", "OBJECT_ID": "1988-074A", "EPOCH": "2025-12-03T03:07:33.737376", "MEAN_MOTION": 13.42620405, "ECCENTRICITY": 0.0094218, "INCLINATION": 90.0356, "RA_OF_ASC_NODE": 20.2122, "ARG_OF_PERICENTER": 273.7658, "MEAN_ANOMALY": 139.3658, "EPHEMERIS_TYPE": 0, "CLASSIFICATION_TYPE": "U", "NORAD_CAT_ID": 19419, "ELEMENT_SET_NO": 999, "REV_AT_EPOCH": 82511, "BSTAR": 0.0002363, "MEAN_MOTION_DOT": 1.45e-06, "MEAN_MOTION_DDOT": 0}, "tle": {"line1": "1 19419U 88074A   25337.13025159  .00000145  00000+0  23630-3 0  9993", "line2": "2 19419  90.0356  20.2122 0094218 273.7658 139.3658 13.42620405825119"}}, "geometry": {"type": "Point", "coordinates": [-159.76675655932237, 29.531412031746484]}}, {"type": "Feature", "properties": {"norad_id": 19420, "name": "OSCAR 31", "group": "nnss", "lat": 37.08370352995572, "lon": 20.53330685816213, "alt_km": 1141.097885741533, "timestamp": "2025-12-03T08:58:46.269952+00:00", "meta": {"OBJECT_NAME": "OSCAR 31", "OBJECT_ID": "1988-074B", "EPOCH": "2025-12-03T03:31:40.915776", "MEAN_MOTION": 13.42582141, "ECCENTRICITY": 0.0092444, "INCLINATION": 90.0372, "RA_OF_ASC_NODE": 20.5606, "ARG_OF_PERICENTER": 267.8245, "MEAN_ANOMALY": 111.3176, "EPHEMERIS_TYPE": 0, "CLASSIFICATION_TYPE": "U", "NORAD_CAT_ID": 19420, "ELEMENT_SET_NO": 999, "REV_AT_EPOCH": 82522, "BSTAR": 0.00019648, "MEAN_MOTION_DOT": 1.22e-06, "MEAN_MOTION_DDOT": 0}, "tle": {"line1": "1 19420U 88074B   25337.14700134  .00000122  00000+0  19648-3 0  9998", "line2": "2 19420  90.0372  20.5606 0092444 267.8245 111.3176 13.42582141825225"}}, "geometry": {"type": "Point", "coordinates": [20.53330685816213, 37.08370352995572]}}]}